[{"OBJECT_NAME":"STARLINK-5052","OBJECT_ID":"2022-119H","EPOCH":"2026-03-09T22:46:21.313056","MEAN_MOTION":15.08840994,"ECCENTRICITY":0.00014826,"INCLINATION":53.2168,"RA_OF_ASC_NODE":322.9627,"ARG_OF_PERICENTER":116.2808,"MEAN_ANOMALY":243.8336,"EPHEMERIS_TYPE":0,"CLASSIFICATION_TYPE":"U","NORAD_CAT_ID":53893,"ELEMENT_SET_NO":999,"REV_AT_EPOCH":19172,"BSTAR":-0.00012492769,"MEAN_MOTION_DOT":-2.276e-5,"MEAN_MOTION_DDOT":0},{"OBJECT_NAME":"FALCON 9 DEB","OBJECT_ID":"2021-041BG","EPOCH":"2026-03-09T15:47:07.516032","MEAN_MOTION":15.0585876,"ECCENTRICITY":0.00124165,"INCLINATION":53.0346,"RA_OF_ASC_NODE":200.9185,"ARG_OF_PERICENTER":159.6872,"MEAN_ANOMALY":200.4613,"EPHEMERIS_TYPE":0,"CLASSIFICATION_TYPE":"U","NORAD_CAT_ID":48607,"ELEMENT_SET_NO":999,"REV_AT_EPOCH":26415,"BSTAR":0.00013916149,"MEAN_MOTION_DOT":1.762e-5,"MEAN_MOTION_DDOT":0}]
